OBJECT_NAME,OBJECT_ID,EPOCH,MEAN_MOTION,ECCENTRICITY,INCLINATION,RA_OF_ASC_NODE,ARG_OF_PERICENTER,MEAN_ANOMALY,EPHEMERIS_TYPE,CLASSIFICATION_TYPE,NORAD_CAT_ID,ELEMENT_SET_NO,REV_AT_EPOCH,BSTAR,MEAN_MOTION_DOT,MEAN_MOTION_DDOT
2024-205C,2024-205C,2026-05-11T05:25:30.909216,15.11784682,.0053289,97.4128,203.1385,129.3241,231.2732,0,U,61896,999,8264,.35111E-3,.6137E-4,0
2024-205D,2024-205D,2026-05-11T05:04:10.704000,15.17583236,.001241,97.4105,203.4713,179.2770,180.8484,0,U,61897,999,8267,.2208E-3,.4377E-4,0
2024-205E,2024-205E,2026-05-11T04:42:37.836000,15.10470894,.0058406,97.4128,202.9961,128.7610,231.8860,0,U,61898,999,8263,.3201E-3,.5422E-4,0
2024-205F,2024-205F,2026-05-11T04:23:52.482912,15.14749593,.00079701,97.4105,203.4529,148.1326,212.0390,0,U,61899,999,8267,.2757687E-3,.5052E-4,0
2024-205G,2024-205G,2026-05-11T04:36:25.012224,15.10284673,.0017642,97.4141,202.2114,276.2384,83.6837,0,U,61900,999,8257,.24409E-3,.3948E-4,0
2024-205H,2024-205H,2026-05-11T03:53:11.266080,15.30824546,.00107107,97.4111,209.1949,162.1642,197.9977,0,U,61901,999,8305,.29933191E-3,.8856E-4,0
2024-205J,2024-205J,2026-05-11T03:40:35.446656,15.11635926,.00117841,97.4145,202.6212,299.2276,60.7776,0,U,61902,999,8259,.26733764E-3,.4488E-4,0
2024-205K,2024-205K,2026-05-11T04:10:39.146880,15.29739590,.00107028,97.4110,208.2267,162.3916,197.7698,0,U,61903,999,8298,.32072948E-3,.918E-4,0
2024-205L,2024-205L,2026-05-11T04:41:45.792960,15.07528586,.0069886,97.4142,202.9587,132.0553,228.6650,0,U,61904,999,8262,.32766E-3,.52E-4,0
2024-205M,2024-205M,2026-05-11T04:46:17.713632,15.28940799,.0007316,97.3849,205.9561,87.5905,272.6173,0,U,61905,999,8285,.18295E-3,.5071E-4,0
2024-205N,2024-205N,2026-05-11T04:30:25.995168,15.36472916,.00100504,97.4162,211.5812,160.0182,200.1458,0,U,61906,999,8319,.38957801E-3,.13813E-3,0
2024-205P,2024-205P,2026-05-11T04:53:08.077344,15.16860169,.0012161,97.4137,204.4629,179.6394,180.4850,0,U,61907,999,8272,.19973E-4,.327E-5,0
2024-205Q,2024-205Q,2026-05-11T04:51:16.419168,15.16936965,.0012336,97.4138,204.4949,179.1061,181.0197,0,U,61908,999,8272,.19808E-3,.3847E-4,0
KOREASAT 6A,2024-206A,2026-05-11T01:29:34.315008,1.00272288,.0000972,0.0262,101.2194,293.4334,332.6113,0,U,61910,999,546,0,-.352E-5,0
STARLINK-32303,2024-207A,2026-05-10T17:57:10.875456,15.27575946,.00001078,43.0002,291.2203,30.4273,329.6585,0,U,61912,999,8480,.45595795E-3,.12305E-3,0
STARLINK-32434,2024-207B,2026-05-11T04:00:57.665376,15.27592335,.0002383,43.0015,289.2147,258.9149,101.1434,0,U,61913,999,8427,.664E-3,.18062E-3,0
STARLINK-32460,2024-207C,2026-05-10T17:16:27.600096,15.27584736,.00015158,43.0014,291.0120,266.4213,93.6465,0,U,61914,999,8421,.54208429E-3,.14687E-3,0
STARLINK-32559,2024-207D,2026-05-11T03:01:45.011424,15.27592344,.00012208,42.9975,288.8994,281.0378,79.0336,0,U,61915,999,8427,.40639034E-3,.10942E-3,0
STARLINK-32541,2024-207E,2026-05-11T03:56:34.141056,15.27586973,.00017,43.0029,292.6508,277.1805,82.8853,0,U,61916,999,8423,.38139E-3,.1025E-3,0
STARLINK-32544,2024-207F,2026-05-11T03:12:51.466464,15.27583798,.0000551,42.9998,288.9564,314.5150,45.5656,0,U,61917,999,8427,.26674296E-3,.7086E-4,0
STARLINK-32555,2024-207G,2026-05-11T04:13:13.082304,15.27583994,.0002077,43.0026,292.7352,268.5666,91.4947,0,U,61918,999,8423,.41044E-3,.11051E-3,0
STARLINK-32547,2024-207H,2026-05-10T18:52:27.835392,15.27590729,.00020573,43.0013,290.6528,265.5181,94.5435,0,U,61919,999,8421,.65425214E-3,.17791E-3,0
STARLINK-32616,2024-207J,2026-05-11T03:33:12.489408,15.27582029,.0001561,43.0022,289.0640,263.9197,96.1477,0,U,61920,999,8427,.40435E-3,.10882E-3,0
STARLINK-32605,2024-207K,2026-05-10T22:24:50.885856,15.27615835,.0001715,43.0024,290.0357,282.9081,77.1579,0,U,61921,999,8424,.98989E-3,.27108E-3,0
STARLINK-32579,2024-207L,2026-05-11T03:51:00.759744,15.27584817,.000136,43.0014,292.6184,267.1645,92.9051,0,U,61922,999,8423,.33289E-3,.8911E-4,0
STARLINK-32537,2024-207M,2026-05-11T04:16:54.998112,15.27595643,.0002115,43.0022,292.7552,272.7064,87.3545,0,U,61923,999,8423,.37267E-3,.10012E-3,0
STARLINK-32564,2024-207N,2026-05-11T04:07:40.183104,15.27582066,.0001935,43.0041,292.7040,270.6514,89.4116,0,U,61924,999,8423,.45201E-3,.12198E-3,0
STARLINK-32536,2024-207P,2026-05-10T17:23:22.606080,15.27582530,.00015112,43.0025,295.3648,246.2491,113.8202,0,U,61925,999,8416,.38723965E-3,.1041E-3,0
STARLINK-32624,2024-207Q,2026-05-10T17:09:03.403008,15.27590661,.00011973,43.0024,290.9723,262.1837,97.8879,0,U,61926,999,8421,.65422225E-3,.1779E-3,0
STARLINK-32622,2024-207R,2026-05-10T20:28:28.058592,15.27595199,.00016668,43.0023,290.2923,273.2575,86.8086,0,U,61927,999,8423,.50164829E-3,.13574E-3,0
STARLINK-32620,2024-207S,2026-05-11T03:27:40.550976,15.27606721,.0001253,43.0021,289.0324,263.5514,96.5194,0,U,61928,999,8427,.65672E-3,.17868E-3,0
STARLINK-32609,2024-207T,2026-05-10T19:25:46.994016,15.27572350,.00016776,43.0017,290.8208,280.2487,79.8176,0,U,61929,999,8422,.51296261E-3,.13877E-3,0
STARLINK-32567,2024-207U,2026-05-11T03:37:34.963104,15.27609230,.0001463,42.9993,285.6070,243.3031,116.7671,0,U,61930,999,8490,.58123E-3,.15781E-3,0
STARLINK-32420,2024-207V,2026-05-11T02:56:11.738976,15.27584726,.00013342,42.9986,288.8697,267.3284,92.7414,0,U,61931,999,8427,.37450159E-3,.10059E-3,0
STARLINK-32354,2024-207W,2026-05-11T04:02:06.813024,15.27584917,.0001601,43.0030,292.6733,268.1093,91.9576,0,U,61932,999,8472,.37528E-3,.10081E-3,0
STARLINK-32361,2024-207X,2026-05-10T17:05:33.832896,15.27577480,.00014832,43.0032,291.7958,263.2037,96.8646,0,U,61933,999,8420,.59951945E-3,.1627E-3,0
STARLINK-32500,2024-207Z,2026-05-11T03:45:27.991008,15.27578587,.0001627,43.0015,292.5856,268.4592,91.6073,0,U,61935,999,8423,.75179E-3,.20482E-3,0
HAIYANG 4-01,2024-208A,2026-05-11T04:16:47.368992,14.73301154,.00006416,98.0041,139.4415,52.8920,307.2346,0,U,61936,999,7999,.54202533E-4,.301E-5,0
STARLINK-11407 [DTC],2024-209A,2026-05-11T03:59:33.521280,15.69738616,.0000926,53.1566,63.0498,88.4400,271.6724,0,U,61939,999,8655,.10344E-2,.12681E-2,0
STARLINK-11337 [DTC],2024-209B,2026-05-11T02:20:48.749280,15.69736457,.0001072,53.1568,63.3309,82.8288,277.2852,0,U,61940,999,8652,.89549E-3,.109461E-2,0
STARLINK-11353 [DTC],2024-209C,2026-05-11T02:13:44.387904,15.69699978,.0001189,53.1567,63.2992,92.2046,267.9108,0,U,61941,999,8648,.95897E-3,.117194E-2,0
STARLINK-11320 [DTC],2024-209D,2026-05-11T03:38:30.901056,15.69722152,.00011008,53.1565,63.6891,34.4839,325.6250,0,U,61942,999,8648,.94035994E-3,.114983E-2,0
STARLINK-11425 [DTC],2024-209E,2026-05-11T01:59:45.888864,15.69705509,.0001368,53.1575,63.9662,117.2768,242.8389,0,U,61943,999,8647,.11054E-2,.135508E-2,0
STARLINK-11422 [DTC],2024-209F,2026-05-11T01:52:42.066624,15.69721755,.0000936,53.1573,63.9344,91.1416,268.9709,0,U,61944,999,8647,.93062E-3,.113767E-2,0
STARLINK-11421 [DTC],2024-209G,2026-05-11T04:49:00.360768,15.69748769,.0001166,53.1575,63.2749,88.8204,271.2947,0,U,61945,999,8649,.1145E-2,.14073E-2,0
STARLINK-11410 [DTC],2024-209H,2026-05-11T04:41:56.561856,15.69727029,.000116,53.1565,63.2424,78.6719,281.4429,0,U,61946,999,8653,.96472E-3,.118045E-2,0
STARLINK-11390 [DTC],2024-209J,2026-05-11T04:34:52.649760,15.69741547,.0001062,53.1563,63.2098,96.6723,263.4415,0,U,61947,999,8653,.10847E-2,.13312E-2,0
STARLINK-11414 [DTC],2024-209K,2026-05-11T02:34:56.365248,15.69726483,.0001193,53.1566,63.3912,63.0388,297.0751,0,U,61948,999,8652,.90866E-3,.111055E-2,0
STARLINK-11424 [DTC],2024-209L,2026-05-11T02:42:00.285120,15.69726932,.0001273,53.1566,63.4241,55.7888,304.3250,0,U,61949,999,8648,.12571E-2,.154691E-2,0
STARLINK-11423 [DTC],2024-209M,2026-05-11T04:27:49.084128,15.69731671,.0001291,53.1567,63.1802,80.1940,279.9224,0,U,61950,999,8653,.11463E-2,.140796E-2,0
STARLINK-11395 [DTC],2024-209N,2026-05-11T01:17:22.981344,15.69718052,.0001439,53.1565,63.7705,40.5496,319.5629,0,U,61951,999,8647,.10986E-2,.134731E-2,0
STARLINK-32572,2024-209P,2026-05-11T05:18:49.055040,15.30206582,.0001274,53.1590,211.7498,90.7251,269.3896,0,U,61952,999,8447,.38279E-3,.10997E-3,0
STARLINK-32585,2024-209Q,2026-05-10T22:43:27.583392,15.42187794,.00011299,53.1591,212.1672,79.8839,280.2294,0,U,61953,999,8444,.44227792E-3,.189E-3,0
STARLINK-32574,2024-209R,2026-05-10T11:49:17.617728,15.42177983,.00013985,53.1597,214.3083,88.1421,271.9745,0,U,61954,999,8439,.6237548E-3,.26843E-3,0
STARLINK-32583,2024-209S,2026-05-10T22:25:25.774176,15.42179897,.0001257,53.1596,212.0856,84.3082,275.8068,0,U,61955,999,8445,.42988213E-3,.18352E-3,0
STARLINK-32273,2024-209T,2026-05-10T15:19:56.433504,15.30207087,.00012057,53.1581,214.5067,86.1960,273.9178,0,U,61956,999,8438,.62602985E-3,.18232E-3,0
STARLINK-32359,2024-209U,2026-05-10T22:10:17.034528,15.42179180,.00012242,53.1593,212.0218,76.0337,284.0805,0,U,61957,999,8446,.73099998E-3,.3155E-3,0
STARLINK-32566,2024-209V,2026-05-10T12:23:02.136480,15.42174738,.00008365,53.1587,213.7442,99.3473,260.7627,0,U,61958,999,8440,.49869567E-3,.21361E-3,0
STARLINK-32499,2024-210A,2026-05-10T11:21:46.675296,15.27551894,.00012008,43.0015,190.5078,275.1771,84.8944,0,U,61959,999,8437,.37394564E-3,.10033E-3,0
STARLINK-32372,2024-210B,2026-05-10T11:32:52.735488,15.27580254,.00010623,43.0020,190.5670,279.0689,81.0043,0,U,61960,999,8423,.27413846E-3,.7289E-4,0
STARLINK-32452,2024-210C,2026-05-11T05:02:56.821632,15.27585797,.000166,42.9977,179.6490,258.3187,101.7479,0,U,61961,999,8455,.40579E-3,.10923E-3,0
STARLINK-32458,2024-210D,2026-05-10T09:37:27.418656,15.27587864,.00004844,42.9992,176.9707,274.9427,85.1369,0,U,61962,999,8451,.60910898E-3,.16541E-3,0
STARLINK-32487,2024-210E,2026-05-11T03:57:01.962720,15.27590289,.00011433,42.9970,187.0815,258.1282,101.9442,0,U,61963,999,8446,.57526192E-3,.15606E-3,0
STARLINK-32513,2024-210F,2026-05-11T04:10:41.784672,15.27575489,.0001798,43.0024,172.4571,283.1317,76.9334,0,U,61964,999,8463,.31841E-3,.8509E-4,0
STARLINK-32514,2024-210G,2026-05-10T10:18:37.327680,15.27574553,.0001356,42.9976,184.1095,265.0008,95.0689,0,U,61965,999,8443,.38108483E-3,.10237E-3,0
